YAOGAN-30 11A           
1 49026U 21065A   26068.71073618  .00004757  00000+0  35664-3 0  9999
2 49026  34.9929 159.1721 0004674 355.4238   4.6427 15.02110690253677
STARLINK-35044          
1 65536U 25200S   26068.71020067  .00002133  00000+0  15199-3 0  9995
2 65536  97.6024 139.8141 0001028  95.1617 264.9727 15.05646584 29138
